{
"type": "FeatureCollection",
"name": "Pcinerascens_Observations4326",
"crs": { "type": "name", "properties": { "name": "urn:ogc:def:crs:OGC:1.3:CRS84" } },
"features": [
{"type":"Feature","properties":{"field_1":-10723313.785584401,"field_2":1969164.93665117,"field_3":1,"field_4":0,"ID":"1","name":"Pop 1"},"geometry":{"type":"MultiPolygon","coordinates":[[[[-96.518991466884046,17.057550432537361],[-96.528146217095554,17.047239704808202],[-96.538865052408553,17.038433055372284],[-96.550884039523879,17.031347562267737],[-96.563907231090027,17.026157900371881],[-96.577613952909118,17.022992020191097],[-96.5916667,17.02192798133494],[-96.605719447090863,17.022992020191097],[-96.619426168909968,17.026157900371881],[-96.632449360476102,17.031347562267737],[-96.644468347591427,17.038433055372284],[-96.655187182904427,17.047239704808202],[-96.664341933115935,17.057550432537361],[-96.671707177892856,17.069111124899685],[-96.677101560464934,17.081636912140386],[-96.680392253230323,17.094819203118927],[-96.68149822841194,17.108333299999067],[-96.680392253230323,17.121846403832802],[-96.677101560464934,17.135025812878773],[-96.671707177892856,17.147547111404979],[-96.664341933115935,17.159102147658459],[-96.655187182904427,17.169406605544424],[-96.644468347591427,17.178206985138981],[-96.632449360476102,17.185286822139531],[-96.619426168909968,17.190471995326909],[-96.605719447090863,17.193634993579959],[-96.5916667,17.194698039391564],[-96.577613952909118,17.193634993579959],[-96.563907231090027,17.190471995326909],[-96.550884039523879,17.185286822139531],[-96.538865052408553,17.178206985138981],[-96.528146217095554,17.169406605544424],[-96.518991466884046,17.159102147658459],[-96.511626222107125,17.147547111404979],[-96.506231839535047,17.135025812878773],[-96.502941146769658,17.121846403832816],[-96.501835171588041,17.108333299999067],[-96.502941146769658,17.094819203118927],[-96.506231839535047,17.081636912140386],[-96.511626222107125,17.069111124899685],[-96.518991466884046,17.057550432537361]]]]}},
{"type":"Feature","properties":{"field_1":-10723313.785584401,"field_2":1969164.93665117,"field_3":1,"field_4":0,"ID":"2","name":"Pop 2"},"geometry":{"type":"MultiPolygon","coordinates":[[[[-96.256491466884356,17.474333383863488],[-96.265646217095863,17.464046219094328],[-96.276365052408863,17.45525968462568],[-96.288384039524189,17.44819036806777],[-96.301407231090337,17.443012550372341],[-96.315113952909428,17.439853893890977],[-96.3291667000003,17.438792282602211],[-96.343219447091172,17.439853893890977],[-96.356926168910277,17.443012550372341],[-96.369949360476411,17.44819036806777],[-96.381968347591751,17.45525968462568],[-96.392687182904737,17.464046219094328],[-96.401841933116259,17.474333383863488],[-96.409207177893165,17.485867640604756],[-96.414601560465243,17.498364766109237],[-96.417892253230633,17.511516871505858],[-96.418998228412264,17.5249999999991],[-96.417892253230633,17.53848211442369],[-96.414601560465243,17.551631276878673],[-96.409207177893165,17.564123818644923],[-96.401841933116259,17.575652299540437],[-96.392687182904737,17.585933061737034],[-96.381968347591751,17.594713193635002],[-96.369949360476411,17.601776734352061],[-96.356926168910277,17.606949968315341],[-96.343219447091172,17.610105681860002],[-96.3291667000003,17.611166279081999],[-96.315113952909428,17.610105681860002],[-96.301407231090337,17.606949968315341],[-96.288384039524189,17.601776734352061],[-96.276365052408863,17.594713193635002],[-96.265646217095863,17.585933061737034],[-96.256491466884356,17.575652299540437],[-96.249126222107435,17.564123818644923],[-96.243731839535371,17.551631276878673],[-96.240441146769967,17.53848211442369],[-96.239335171588351,17.5249999999991],[-96.240441146769967,17.511516871505858],[-96.243731839535371,17.498364766109237],[-96.249126222107435,17.485867640604756],[-96.256491466884356,17.474333383863488]]]]}},
{"type":"Feature","properties":{"field_1":-10723313.785584401,"field_2":1969164.93665117,"field_3":1,"field_4":0,"ID":"3","name":"Pop 3"},"geometry":{"type":"MultiPolygon","coordinates":[[[[-96.772804766884406,19.152478739148155],[-96.781959517095913,19.142291990301711],[-96.792678352408913,19.1335911811207],[-96.804697339524239,19.126590807452477],[-96.817720531090387,19.121463469864835],[-96.82566901855499,19.119649635479995],[-96.827796131090054,19.118812149190447],[-96.841502852909159,19.115684229942605],[-96.855555600000031,19.114632948173821],[-96.869608347090903,19.115684229942605],[-96.883315068910008,19.118812149190447],[-96.896338260476142,19.123939570026653],[-96.908357247591468,19.130940057389008],[-96.919076082904482,19.139641007936767],[-96.928230833115975,19.149827922371095],[-96.935596077892896,19.16124971182257],[-96.94099046046496,19.173624905240676],[-96.944281153230364,19.186648602524944],[-96.94538712841198,19.199999999999086],[-96.944281153230364,19.213350301175147],[-96.94099046046496,19.226370816878713],[-96.936480652196494,19.236712639968161],[-96.936162860464549,19.237969933484983],[-96.930768477892471,19.25033928714511],[-96.92340323311555,19.261754015831094],[-96.914248482904043,19.271933279941617],[-96.903529647591029,19.280626686225006],[-96.891510660475717,19.287620428387843],[-96.878487468909569,19.292742526766265],[-96.864780747090478,19.295867040497814],[-96.850727999999606,19.296917150698949],[-96.836675252908734,19.295867040497814],[-96.822968531089629,19.292742526766265],[-96.809945339523495,19.287620428387843],[-96.797926352408169,19.280626686225006],[-96.787207517095155,19.271933279941617],[-96.778052766883661,19.261754015831094],[-96.770687522106726,19.25033928714511],[-96.76959079357222,19.247824558021595],[-96.765439522107485,19.24139042278318],[-96.760045139535421,19.229020386753763],[-96.756754446770017,19.216000083493871],[-96.755648471588401,19.202649999999132],[-96.756754446770017,19.189298820079195],[-96.760045139535421,19.176275334869718],[-96.765439522107485,19.163900342838481],[-96.772804766884406,19.152478739148155]]]]}},
{"type":"Feature","properties":{"field_1":-10723313.785584401,"field_2":1969164.93665117,"field_3":1,"field_4":0,"ID":"4","name":"Pop 4"},"geometry":{"type":"MultiPolygon","coordinates":[[[[-96.786479517095145,19.739866747571703],[-96.797198352408159,19.731198283120268],[-96.809217339523485,19.724223922892801],[-96.822240531089619,19.719115632859104],[-96.83594725290871,19.715999381753864],[-96.849999999999582,19.714952021201],[-96.864052747090454,19.715999381753864],[-96.877759468909559,19.719115632859104],[-96.890782660475693,19.724223922892801],[-96.902801647591019,19.731198283120268],[-96.913520482904033,19.739866747571703],[-96.922675233115541,19.750015610253968],[-96.930040477892462,19.761394712652571],[-96.935434860464525,19.773723628860257],[-96.938725553229915,19.786698593556146],[-96.939831528411531,19.799999999999098],[-96.938725553229915,19.813300281614108],[-96.935434860464525,19.826271981932379],[-96.930040477892462,19.838595813753571],[-96.922675233115541,19.849968509452903],[-96.913520482904033,19.860110270256225],[-96.902801647591019,19.86877163283074],[-96.892913958978369,19.874503998283387],[-96.888220482904657,19.879702764979342],[-96.877501647591657,19.888363044319121],[-96.865482660476331,19.895330126077102],[-96.852459468910197,19.900432693072773],[-96.838752747091092,19.903545290143523],[-96.82470000000022,19.904591394896787],[-96.810647252909348,19.903545290143523],[-96.796940531090257,19.900432693072773],[-96.783917339524109,19.895330126077102],[-96.771898352408783,19.888363044319121],[-96.761179517095783,19.879702764979342],[-96.752024766884261,19.869562271983973],[-96.744659522107355,19.858190997234782],[-96.739265139535277,19.845868704324772],[-96.735974446769887,19.832898622832577],[-96.734868471588257,19.819599999999131],[-96.735974446769887,19.80630025141425],[-96.739265139535277,19.793326902864425],[-96.744659522107355,19.780999521393721],[-96.752024766884261,19.769621834685452],[-96.761179517095783,19.759474233980608],[-96.771898352408783,19.750806846933379],[-96.781786041021434,19.745069968823085],[-96.786479517095145,19.739866747571703]]]]}},
{"type":"Feature","properties":{"field_1":-10723313.785584401,"field_2":1969164.93665117,"field_3":1,"field_4":0,"ID":"5","name":"Pop 5"},"geometry":{"type":"MultiPolygon","coordinates":[[[[-98.315947252909211,20.346340284558885],[-98.33,20.345297165989216],[-98.344052747090956,20.346340284558885],[-98.347323829524385,20.347080965185512],[-98.348888899999665,20.346964792796459],[-98.362941647090537,20.348007899974778],[-98.376648368909656,20.35111149460522],[-98.389671560475776,20.356199033564305],[-98.401690547591116,20.363145054182247],[-98.412409382904116,20.371778282138152],[-98.421564133115623,20.381885872246553],[-98.428929377892544,20.393218675433641],[-98.434323760464608,20.405497399679209],[-98.437614453229997,20.418419510678202],[-98.438720428411628,20.43166669999912],[-98.437614453229997,20.444912735006184],[-98.434323760464608,20.457831496056137],[-98.428929377892544,20.470105002634639],[-98.421564133115623,20.481431231179148],[-98.412409382904116,20.49153153324205],[-98.401690547591116,20.500157473154513],[-98.389671560475776,20.507096919135218],[-98.376648368909656,20.512179240433852],[-98.362941647090537,20.515279485120598],[-98.348888899999665,20.516321437987116],[-98.334836152908792,20.515279485120598],[-98.331565070475378,20.514539623540959],[-98.33,20.514655667942659],[-98.320067977566822,20.513919242343011],[-98.31405274709094,20.515279784955265],[-98.3,20.516321737819698],[-98.285947252909196,20.515279784955265],[-98.272240531090091,20.512179540274651],[-98.259217339523957,20.507097218986083],[-98.247198352408617,20.500157773019104],[-98.236479517095617,20.491531833123727],[-98.227324766884109,20.481431531080808],[-98.219959522107203,20.470105302558679],[-98.214565139535125,20.457831796004452],[-98.211274446769735,20.444913034980008],[-98.210168471588105,20.431666999999113],[-98.211274446769735,20.418419810704314],[-98.214565139535125,20.405497699730791],[-98.219959522107203,20.39321897550942],[-98.227324766884109,20.381886172344672],[-98.236479517095617,20.371778582256155],[-98.247198352408617,20.363145354317226],[-98.259217339523957,20.356199333712958],[-98.272240531090091,20.35111179476386],[-98.285947252909196,20.348008200139539],[-98.3,20.346965092963266],[-98.309932022433316,20.347702327767564],[-98.315947252909211,20.346340284558885]]]]}}
]
}
