{
"type": "FeatureCollection",
"name": "ZeaPerennisSDMWGS4326",
"crs": { "type": "name", "properties": { "name": "urn:ogc:def:crs:OGC:1.3:CRS84" } },
"features": [
{"type":"Feature","properties":{"fid":260.0,"DN":36,"name":"Pop 5"},"geometry":{"type":"MultiPolygon","coordinates":[[[[-104.300266442932454,20.302560077255372],[-104.291283290091272,20.302560077255372],[-104.291283290091272,20.294084837624585],[-104.300266442932454,20.294084837624585],[-104.300266442932454,20.302560077255372]]]]}},
{"type":"Feature","properties":{"fid":262.0,"DN":5,"name":"Pop 1"},"geometry":{"type":"MultiPolygon","coordinates":[[[[-104.201451761679309,20.217786591289517],[-104.192468608838112,20.217786591289517],[-104.192468608838112,20.209306668020009],[-104.201451761679309,20.209306668020009],[-104.201451761679309,20.217786591289517]]]]}},
{"type":"Feature","properties":{"fid":263.0,"DN":5,"name":"Pop 1"},"geometry":{"type":"MultiPolygon","coordinates":[[[[-104.219418067361701,20.200826277272807],[-104.210434914520505,20.200826277272807],[-104.210434914520505,20.192345419209182],[-104.219418067361701,20.192345419209182],[-104.219418067361701,20.200826277272807]]]]}},
{"type":"Feature","properties":{"fid":264.0,"DN":36,"name":"Pop 5"},"geometry":{"type":"MultiPolygon","coordinates":[[[[-104.237384373044094,20.183864093990532],[-104.228401220202898,20.183864093990532],[-104.228401220202898,20.175382301778281],[-104.237384373044094,20.175382301778281],[-104.237384373044094,20.183864093990532]]]]}},
{"type":"Feature","properties":{"fid":265.0,"DN":36,"name":"Pop 5"},"geometry":{"type":"MultiPolygon","coordinates":[[[[-103.976872940649429,20.149934124794953],[-103.967889787808232,20.149934124794953],[-103.967889787808232,20.132966341466457],[-103.976872940649429,20.132966341466457],[-103.976872940649429,20.149934124794953]]]]}},
{"type":"Feature","properties":{"fid":266.0,"DN":5,"name":"Pop 1"},"geometry":{"type":"MultiPolygon","coordinates":[[[[-104.057721316220182,20.141450466223557],[-104.048738163378985,20.141450466223557],[-104.048738163378985,20.132966341466457],[-104.057721316220182,20.132966341466457],[-104.057721316220182,20.141450466223557]]]]}},
{"type":"Feature","properties":{"fid":267.0,"DN":20,"name":"Pop 2"},"geometry":{"type":"MultiPolygon","coordinates":[[[[-103.94992348212584,20.141450466223557],[-103.940940329284643,20.141450466223557],[-103.940940329284643,20.124481750685373],[-103.94992348212584,20.124481750685373],[-103.94992348212584,20.141450466223557]]]]}},
{"type":"Feature","properties":{"fid":268.0,"DN":36,"name":"Pop 5"},"geometry":{"type":"MultiPolygon","coordinates":[[[[-103.985856093490625,20.132966341466457],[-103.976872940649429,20.132966341466457],[-103.976872940649429,20.124481750685373],[-103.985856093490625,20.124481750685373],[-103.985856093490625,20.132966341466457]]]]}},
{"type":"Feature","properties":{"fid":269.0,"DN":20,"name":"Pop 2"},"geometry":{"type":"MultiPolygon","coordinates":[[[[-103.967889787808232,20.141450466223557],[-103.958906634967036,20.141450466223557],[-103.958906634967036,20.124481750685373],[-103.967889787808232,20.124481750685373],[-103.967889787808232,20.107511171698441],[-103.976872940649429,20.107511171698441],[-103.976872940649429,20.099025183816298],[-103.985856093490625,20.099025183816298],[-103.985856093490625,20.124481750685373],[-103.976872940649429,20.124481750685373],[-103.976872940649429,20.132966341466457],[-103.967889787808232,20.132966341466457],[-103.967889787808232,20.141450466223557]]]]}},
{"type":"Feature","properties":{"fid":270.0,"DN":5,"name":"Pop 1"},"geometry":{"type":"MultiPolygon","coordinates":[[[[-103.958906634967036,20.141450466223557],[-103.94992348212584,20.141450466223557],[-103.94992348212584,20.124481750685373],[-103.940940329284643,20.124481750685373],[-103.940940329284643,20.115996694042096],[-103.958906634967036,20.115996694042096],[-103.958906634967036,20.107511171698441],[-103.967889787808232,20.107511171698441],[-103.967889787808232,20.124481750685373],[-103.958906634967036,20.124481750685373],[-103.958906634967036,20.141450466223557]]]]}},
{"type":"Feature","properties":{"fid":271.0,"DN":5,"name":"Pop 1"},"geometry":{"type":"MultiPolygon","coordinates":[[[[-103.976872940649429,20.107511171698441],[-103.967889787808232,20.107511171698441],[-103.967889787808232,20.099025183816298],[-103.976872940649429,20.099025183816298],[-103.976872940649429,20.107511171698441]]]]}},
{"type":"Feature","properties":{"fid":272.0,"DN":90,"name":"Pop 7"},"geometry":{"type":"MultiPolygon","coordinates":[[[[-103.581614215636833,20.115996694042096],[-103.572631062795637,20.115996694042096],[-103.572631062795637,20.090538730557608],[-103.590597368478043,20.090538730557608],[-103.590597368478043,20.107511171698441],[-103.581614215636833,20.107511171698441],[-103.581614215636833,20.115996694042096]]]]}},
{"type":"Feature","properties":{"fid":273.0,"DN":90,"name":"Pop 7"},"geometry":{"type":"MultiPolygon","coordinates":[[[[-103.59958052131924,20.065076580142367],[-103.590597368478043,20.065076580142367],[-103.590597368478043,20.056588266997853],[-103.59958052131924,20.056588266997853],[-103.59958052131924,20.065076580142367]]]]}},
{"type":"Feature","properties":{"fid":275.0,"DN":20,"name":"Pop 2"},"geometry":{"type":"MultiPolygon","coordinates":[[[[-103.878058259396269,20.056588266997853],[-103.869075106555087,20.056588266997853],[-103.869075106555087,20.039610247172721],[-103.878058259396269,20.039610247172721],[-103.878058259396269,20.056588266997853]]]]}},
{"type":"Feature","properties":{"fid":276.0,"DN":90,"name":"Pop 7"},"geometry":{"type":"MultiPolygon","coordinates":[[[[-103.608563674160422,20.056588266997853],[-103.59958052131924,20.056588266997853],[-103.59958052131924,20.048099489287221],[-103.608563674160422,20.048099489287221],[-103.608563674160422,20.056588266997853]]]]}},
{"type":"Feature","properties":{"fid":278.0,"DN":90,"name":"Pop 7"},"geometry":{"type":"MultiPolygon","coordinates":[[[[-103.617546827001618,20.048099489287221],[-103.608563674160422,20.048099489287221],[-103.608563674160422,20.039610247172721],[-103.617546827001618,20.039610247172721],[-103.617546827001618,20.048099489287221]]]]}},
{"type":"Feature","properties":{"fid":279.0,"DN":5,"name":"Pop 1"},"geometry":{"type":"MultiPolygon","coordinates":[[[[-103.869075106555087,20.039610247172721],[-103.860091953713891,20.039610247172721],[-103.860091953713891,20.031120540816634],[-103.869075106555087,20.031120540816634],[-103.869075106555087,20.039610247172721]]]]}},
{"type":"Feature","properties":{"fid":280.0,"DN":5,"name":"Pop 1"},"geometry":{"type":"MultiPolygon","coordinates":[[[[-103.940940329284643,20.022630370381311],[-103.931957176443447,20.022630370381311],[-103.931957176443447,20.014139736029151],[-103.913990870761069,20.014139736029151],[-103.913990870761069,19.988665051096277],[-103.922974023602265,19.988665051096277],[-103.922974023602265,20.005648637922576],[-103.940940329284643,20.005648637922576],[-103.940940329284643,20.022630370381311]]]]}},
{"type":"Feature","properties":{"fid":281.0,"DN":90,"name":"Pop 7"},"geometry":{"type":"MultiPolygon","coordinates":[[[[-103.653479438366404,20.022630370381311],[-103.644496285525207,20.022630370381311],[-103.644496285525207,19.997157076224113],[-103.653479438366404,19.997157076224113],[-103.653479438366404,19.988665051096277],[-103.662462591207586,19.988665051096277],[-103.662462591207586,19.997157076224113],[-103.671445744048782,19.997157076224113],[-103.671445744048782,20.005648637922576],[-103.662462591207586,20.005648637922576],[-103.662462591207586,20.014139736029151],[-103.653479438366404,20.014139736029151],[-103.653479438366404,20.022630370381311]]]]}},
{"type":"Feature","properties":{"fid":282.0,"DN":90,"name":"Pop 7"},"geometry":{"type":"MultiPolygon","coordinates":[[[[-103.931957176443447,19.971679611202958],[-103.922974023602265,19.971679611202958],[-103.922974023602265,19.963186196762823],[-103.931957176443447,19.963186196762823],[-103.931957176443447,19.971679611202958]]]]}},
{"type":"Feature","properties":{"fid":283.0,"DN":25,"name":"Pop 3"},"geometry":{"type":"MultiPolygon","coordinates":[[[[-103.312119630400986,19.954692319544016],[-103.294153324718593,19.954692319544016],[-103.294153324718593,19.946197979709343],[-103.312119630400986,19.946197979709343],[-103.312119630400986,19.954692319544016]]]]}},
{"type":"Feature","properties":{"fid":284.0,"DN":25,"name":"Pop 3"},"geometry":{"type":"MultiPolygon","coordinates":[[[[-103.330085936083378,19.954692319544016],[-103.321102783242182,19.954692319544016],[-103.321102783242182,19.929207912843825],[-103.330085936083378,19.929207912843825],[-103.330085936083378,19.954692319544016]]]]}},
{"type":"Feature","properties":{"fid":285.0,"DN":5,"name":"Pop 1"},"geometry":{"type":"MultiPolygon","coordinates":[[[[-104.057721316220182,19.946197979709343],[-104.048738163378985,19.946197979709343],[-104.048738163378985,19.937703177421639],[-104.057721316220182,19.937703177421639],[-104.057721316220182,19.946197979709343]]]]}},
{"type":"Feature","properties":{"fid":286.0,"DN":5,"name":"Pop 1"},"geometry":{"type":"MultiPolygon","coordinates":[[[[-103.491782687224884,19.903719346999427],[-103.482799534383688,19.903719346999427],[-103.482799534383688,19.895222234891172],[-103.491782687224884,19.895222234891172],[-103.491782687224884,19.903719346999427]]]]}},
{"type":"Feature","properties":{"fid":287.0,"DN":25,"name":"Pop 3"},"geometry":{"type":"MultiPolygon","coordinates":[[[[-103.312119630400986,19.937703177421639],[-103.267203866195004,19.937703177421639],[-103.267203866195004,19.929207912843825],[-103.258220713353808,19.929207912843825],[-103.258220713353808,19.920712186138843],[-103.249237560512611,19.920712186138843],[-103.249237560512611,19.912215997469694],[-103.240254407671415,19.912215997469694],[-103.240254407671415,19.903719346999427],[-103.222288101989037,19.903719346999427],[-103.222288101989037,19.895222234891172],[-103.249237560512611,19.895222234891172],[-103.249237560512611,19.903719346999427],[-103.258220713353808,19.903719346999427],[-103.258220713353808,19.869728130370113],[-103.249237560512611,19.869728130370113],[-103.249237560512611,19.8527297554919],[-103.267203866195004,19.8527297554919],[-103.267203866195004,19.861229173341869],[-103.2761870190362,19.861229173341869],[-103.2761870190362,19.878226626413277],[-103.267203866195004,19.878226626413277],[-103.267203866195004,19.886724661308048],[-103.2761870190362,19.886724661308048],[-103.2761870190362,19.903719346999427],[-103.312119630400986,19.903719346999427],[-103.312119630400986,19.937703177421639]]]]}},
{"type":"Feature","properties":{"fid":288.0,"DN":25,"name":"Pop 3"},"geometry":{"type":"MultiPolygon","coordinates":[[[[-103.303136477559789,19.878226626413277],[-103.285170171877397,19.878226626413277],[-103.285170171877397,19.869728130370113],[-103.294153324718593,19.869728130370113],[-103.294153324718593,19.8527297554919],[-103.303136477559789,19.8527297554919],[-103.303136477559789,19.861229173341869],[-103.312119630400986,19.861229173341869],[-103.312119630400986,19.869728130370113],[-103.303136477559789,19.869728130370113],[-103.303136477559789,19.878226626413277]]]]}},
{"type":"Feature","properties":{"fid":289.0,"DN":25,"name":"Pop 3"},"geometry":{"type":"MultiPolygon","coordinates":[[[[-103.339069088924575,19.8527297554919],[-103.330085936083378,19.8527297554919],[-103.330085936083378,19.844229876983622],[-103.339069088924575,19.844229876983622],[-103.339069088924575,19.8527297554919]]]]}},
{"type":"Feature","properties":{"fid":290.0,"DN":5,"name":"Pop 1"},"geometry":{"type":"MultiPolygon","coordinates":[[[[-103.168389184941859,19.8527297554919],[-103.159406032100662,19.8527297554919],[-103.159406032100662,19.844229876983622],[-103.150422879259466,19.844229876983622],[-103.150422879259466,19.835729537980477],[-103.168389184941859,19.835729537980477],[-103.168389184941859,19.8527297554919]]]]}},
{"type":"Feature","properties":{"fid":291.0,"DN":90,"name":"Pop 7"},"geometry":{"type":"MultiPolygon","coordinates":[[[[-103.204321796306644,19.844229876983622],[-103.168389184941859,19.844229876983622],[-103.168389184941859,19.835729537980477],[-103.204321796306644,19.835729537980477],[-103.204321796306644,19.844229876983622]]]]}},
{"type":"Feature","properties":{"fid":292.0,"DN":5,"name":"Pop 1"},"geometry":{"type":"MultiPolygon","coordinates":[[[[-103.2761870190362,19.835729537980477],[-103.267203866195004,19.835729537980477],[-103.267203866195004,19.827228738645982],[-103.2761870190362,19.827228738645982],[-103.2761870190362,19.835729537980477]]]]}},
{"type":"Feature","properties":{"fid":293.0,"DN":5,"name":"Pop 1"},"geometry":{"type":"MultiPolygon","coordinates":[[[[-103.572631062795637,19.8527297554919],[-103.56364790995444,19.8527297554919],[-103.56364790995444,19.844229876983622],[-103.554664757113244,19.844229876983622],[-103.554664757113244,19.81022575963722],[-103.581614215636833,19.81022575963722],[-103.581614215636833,19.827228738645982],[-103.572631062795637,19.827228738645982],[-103.572631062795637,19.8527297554919]]]]}},
{"type":"Feature","properties":{"fid":294.0,"DN":5,"name":"Pop 1"},"geometry":{"type":"MultiPolygon","coordinates":[[[[-103.231271254830233,19.827228738645982],[-103.222288101989037,19.827228738645982],[-103.222288101989037,19.818727479143686],[-103.231271254830233,19.818727479143686],[-103.231271254830233,19.827228738645982]]]]}},
{"type":"Feature","properties":{"fid":295.0,"DN":90,"name":"Pop 7"},"geometry":{"type":"MultiPolygon","coordinates":[[[[-103.222288101989037,19.827228738645982],[-103.21330494914784,19.827228738645982],[-103.21330494914784,19.818727479143686],[-103.222288101989037,19.818727479143686],[-103.222288101989037,19.827228738645982]]]]}},
{"type":"Feature","properties":{"fid":296.0,"DN":5,"name":"Pop 1"},"geometry":{"type":"MultiPolygon","coordinates":[[[[-103.21330494914784,19.861229173341869],[-103.204321796306644,19.861229173341869],[-103.204321796306644,19.8527297554919],[-103.186355490624237,19.8527297554919],[-103.186355490624237,19.844229876983622],[-103.204321796306644,19.844229876983622],[-103.204321796306644,19.835729537980477],[-103.168389184941859,19.835729537980477],[-103.168389184941859,19.827228738645982],[-103.177372337783055,19.827228738645982],[-103.177372337783055,19.818727479143686],[-103.186355490624237,19.818727479143686],[-103.186355490624237,19.80172358029025],[-103.204321796306644,19.80172358029025],[-103.204321796306644,19.81022575963722],[-103.21330494914784,19.81022575963722],[-103.21330494914784,19.827228738645982],[-103.222288101989037,19.827228738645982],[-103.222288101989037,19.8527297554919],[-103.21330494914784,19.8527297554919],[-103.21330494914784,19.861229173341869]]]]}},
{"type":"Feature","properties":{"fid":299.0,"DN":20,"name":"Pop 2"},"geometry":{"type":"MultiPolygon","coordinates":[[[[-103.617546827001618,19.759205791679285],[-103.608563674160422,19.759205791679285],[-103.608563674160422,19.750700856728916],[-103.617546827001618,19.750700856728916],[-103.617546827001618,19.759205791679285]]]]}},
{"type":"Feature","properties":{"fid":300.0,"DN":5,"name":"Pop 1"},"geometry":{"type":"MultiPolygon","coordinates":[[[[-103.348052241765757,19.818727479143686],[-103.339069088924575,19.818727479143686],[-103.339069088924575,19.80172358029025],[-103.321102783242182,19.80172358029025],[-103.321102783242182,19.793220941266469],[-103.312119630400986,19.793220941266469],[-103.312119630400986,19.784717842729645],[-103.321102783242182,19.784717842729645],[-103.321102783242182,19.750700856728916],[-103.330085936083378,19.750700856728916],[-103.330085936083378,19.742195463085093],[-103.339069088924575,19.742195463085093],[-103.339069088924575,19.73368961091186],[-103.348052241765757,19.73368961091186],[-103.348052241765757,19.716676531633677],[-103.357035394606953,19.716676531633677],[-103.357035394606953,19.708169304857126],[-103.366018547448149,19.708169304857126],[-103.366018547448149,19.716676531633677],[-103.383984853130542,19.716676531633677],[-103.383984853130542,19.742195463085093],[-103.375001700289346,19.742195463085093],[-103.375001700289346,19.759205791679285],[-103.366018547448149,19.759205791679285],[-103.366018547448149,19.750700856728916],[-103.357035394606953,19.750700856728916],[-103.357035394606953,19.776214284843576],[-103.348052241765757,19.776214284843576],[-103.348052241765757,19.818727479143686]]]]}},
{"type":"Feature","properties":{"fid":301.0,"DN":5,"name":"Pop 1"},"geometry":{"type":"MultiPolygon","coordinates":[[[[-103.321102783242182,19.73368961091186],[-103.312119630400986,19.73368961091186],[-103.312119630400986,19.716676531633677],[-103.321102783242182,19.716676531633677],[-103.321102783242182,19.73368961091186]]]]}},
{"type":"Feature","properties":{"fid":302.0,"DN":90,"name":"Pop 7"},"geometry":{"type":"MultiPolygon","coordinates":[[[[-103.43788377017772,19.988665051096277],[-103.410934311654131,19.988665051096277],[-103.410934311654131,19.980172562701682],[-103.401951158812935,19.980172562701682],[-103.401951158812935,19.963186196762823],[-103.383984853130542,19.963186196762823],[-103.383984853130542,19.954692319544016],[-103.375001700289346,19.954692319544016],[-103.375001700289346,19.963186196762823],[-103.348052241765757,19.963186196762823],[-103.348052241765757,19.980172562701682],[-103.339069088924575,19.980172562701682],[-103.339069088924575,19.988665051096277],[-103.321102783242182,19.988665051096277],[-103.321102783242182,19.980172562701682],[-103.312119630400986,19.980172562701682],[-103.312119630400986,19.946197979709343],[-103.285170171877397,19.946197979709343],[-103.285170171877397,19.937703177421639],[-103.312119630400986,19.937703177421639],[-103.312119630400986,19.903719346999427],[-103.2761870190362,19.903719346999427],[-103.2761870190362,19.886724661308048],[-103.267203866195004,19.886724661308048],[-103.267203866195004,19.878226626413277],[-103.2761870190362,19.878226626413277],[-103.2761870190362,19.861229173341869],[-103.267203866195004,19.861229173341869],[-103.267203866195004,19.8527297554919],[-103.249237560512611,19.8527297554919],[-103.249237560512611,19.869728130370113],[-103.258220713353808,19.869728130370113],[-103.258220713353808,19.903719346999427],[-103.249237560512611,19.903719346999427],[-103.249237560512611,19.895222234891172],[-103.222288101989037,19.895222234891172],[-103.222288101989037,19.903719346999427],[-103.21330494914784,19.903719346999427],[-103.21330494914784,19.895222234891172],[-103.204321796306644,19.895222234891172],[-103.204321796306644,19.878226626413277],[-103.186355490624237,19.878226626413277],[-103.186355490624237,19.861229173341869],[-103.21330494914784,19.861229173341869],[-103.21330494914784,19.8527297554919],[-103.222288101989037,19.8527297554919],[-103.222288101989037,19.827228738645982],[-103.240254407671415,19.827228738645982],[-103.240254407671415,19.835729537980477],[-103.258220713353808,19.835729537980477],[-103.258220713353808,19.827228738645982],[-103.2761870190362,19.827228738645982],[-103.2761870190362,19.835729537980477],[-103.267203866195004,19.835729537980477],[-103.267203866195004,19.818727479143686],[-103.285170171877397,19.818727479143686],[-103.285170171877397,19.81022575963722],[-103.294153324718593,19.81022575963722],[-103.294153324718593,19.80172358029025],[-103.303136477559789,19.80172358029025],[-103.303136477559789,19.793220941266469],[-103.321102783242182,19.793220941266469],[-103.321102783242182,19.80172358029025],[-103.339069088924575,19.80172358029025],[-103.339069088924575,19.818727479143686],[-103.348052241765757,19.818727479143686],[-103.348052241765757,19.776214284843576],[-103.357035394606953,19.776214284843576],[-103.357035394606953,19.750700856728916],[-103.366018547448149,19.750700856728916],[-103.366018547448149,19.759205791679285],[-103.375001700289346,19.759205791679285],[-103.375001700289346,19.742195463085093],[-103.383984853130542,19.742195463085093],[-103.383984853130542,19.716676531633677],[-103.366018547448149,19.716676531633677],[-103.366018547448149,19.708169304857126],[-103.375001700289346,19.708169304857126],[-103.375001700289346,19.699661620207937],[-103.383984853130542,19.699661620207937],[-103.383984853130542,19.691153477850417],[-103.392968005971738,19.691153477850417],[-103.392968005971738,19.68264487794896],[-103.401951158812935,19.68264487794896],[-103.401951158812935,19.691153477850417],[-103.428900617336524,19.691153477850417],[-103.428900617336524,19.68264487794896],[-103.43788377017772,19.68264487794896],[-103.43788377017772,19.691153477850417],[-103.446866923018916,19.691153477850417],[-103.446866923018916,19.699661620207937],[-103.455850075860099,19.699661620207937],[-103.455850075860099,19.72518330037332],[-103.446866923018916,19.72518330037332],[-103.446866923018916,19.776214284843576],[-103.455850075860099,19.776214284843576],[-103.455850075860099,19.793220941266469],[-103.446866923018916,19.793220941266469],[-103.446866923018916,19.80172358029025],[-103.455850075860099,19.80172358029025],[-103.455850075860099,19.81022575963722],[-103.446866923018916,19.81022575963722],[-103.446866923018916,19.818727479143686],[-103.455850075860099,19.818727479143686],[-103.455850075860099,19.835729537980477],[-103.464833228701295,19.835729537980477],[-103.464833228701295,19.844229876983622],[-103.482799534383688,19.844229876983622],[-103.482799534383688,19.869728130370113],[-103.491782687224884,19.869728130370113],[-103.491782687224884,19.895222234891172],[-103.482799534383688,19.895222234891172],[-103.482799534383688,19.903719346999427],[-103.491782687224884,19.903719346999427],[-103.491782687224884,19.920712186138843],[-103.482799534383688,19.920712186138843],[-103.482799534383688,19.954692319544016],[-103.473816381542491,19.954692319544016],[-103.473816381542491,19.963186196762823],[-103.464833228701295,19.963186196762823],[-103.464833228701295,19.971679611202958],[-103.455850075860099,19.971679611202958],[-103.455850075860099,19.980172562701682],[-103.43788377017772,19.980172562701682],[-103.43788377017772,19.988665051096277]],[[-103.330085936083378,19.954692319544016],[-103.330085936083378,19.929207912843825],[-103.321102783242182,19.929207912843825],[-103.321102783242182,19.954692319544016],[-103.330085936083378,19.954692319544016]],[[-103.303136477559789,19.878226626413277],[-103.303136477559789,19.869728130370113],[-103.312119630400986,19.869728130370113],[-103.312119630400986,19.861229173341869],[-103.303136477559789,19.861229173341869],[-103.303136477559789,19.8527297554919],[-103.294153324718593,19.8527297554919],[-103.294153324718593,19.869728130370113],[-103.285170171877397,19.869728130370113],[-103.285170171877397,19.878226626413277],[-103.303136477559789,19.878226626413277]],[[-103.339069088924575,19.8527297554919],[-103.339069088924575,19.844229876983622],[-103.330085936083378,19.844229876983622],[-103.330085936083378,19.8527297554919],[-103.339069088924575,19.8527297554919]]]]}},
{"type":"Feature","properties":{"fid":303.0,"DN":20,"name":"Pop 2"},"geometry":{"type":"MultiPolygon","coordinates":[[[[-103.653479438366404,19.716676531633677],[-103.617546827001618,19.716676531633677],[-103.617546827001618,19.708169304857126],[-103.608563674160422,19.708169304857126],[-103.608563674160422,19.674135820667964],[-103.626529979842815,19.674135820667964],[-103.626529979842815,19.68264487794896],[-103.653479438366404,19.68264487794896],[-103.653479438366404,19.691153477850417],[-103.680428896889978,19.691153477850417],[-103.680428896889978,19.699661620207937],[-103.671445744048782,19.699661620207937],[-103.671445744048782,19.708169304857126],[-103.653479438366404,19.708169304857126],[-103.653479438366404,19.716676531633677]]]]}},
{"type":"Feature","properties":{"fid":304.0,"DN":5,"name":"Pop 1"},"geometry":{"type":"MultiPolygon","coordinates":[[[[-103.375001700289346,19.708169304857126],[-103.366018547448149,19.708169304857126],[-103.366018547448149,19.691153477850417],[-103.375001700289346,19.691153477850417],[-103.375001700289346,19.68264487794896],[-103.383984853130542,19.68264487794896],[-103.383984853130542,19.665626306171902],[-103.392968005971738,19.665626306171902],[-103.392968005971738,19.657116334625311],[-103.401951158812935,19.657116334625311],[-103.401951158812935,19.665626306171902],[-103.419917464495327,19.665626306171902],[-103.419917464495327,19.674135820667964],[-103.428900617336524,19.674135820667964],[-103.428900617336524,19.691153477850417],[-103.401951158812935,19.691153477850417],[-103.401951158812935,19.68264487794896],[-103.392968005971738,19.68264487794896],[-103.392968005971738,19.691153477850417],[-103.383984853130542,19.691153477850417],[-103.383984853130542,19.699661620207937],[-103.375001700289346,19.699661620207937],[-103.375001700289346,19.708169304857126]]]]}},
{"type":"Feature","properties":{"fid":305.0,"DN":90,"name":"Pop 7"},"geometry":{"type":"MultiPolygon","coordinates":[[[[-103.464833228701295,19.674135820667964],[-103.455850075860099,19.674135820667964],[-103.455850075860099,19.657116334625311],[-103.464833228701295,19.657116334625311],[-103.464833228701295,19.674135820667964]]]]}},
{"type":"Feature","properties":{"fid":306.0,"DN":5,"name":"Pop 1"},"geometry":{"type":"MultiPolygon","coordinates":[[[[-103.321102783242182,19.665626306171902],[-103.312119630400986,19.665626306171902],[-103.312119630400986,19.648605906192753],[-103.330085936083378,19.648605906192753],[-103.330085936083378,19.657116334625311],[-103.321102783242182,19.657116334625311],[-103.321102783242182,19.665626306171902]]]]}},
{"type":"Feature","properties":{"fid":307.0,"DN":5,"name":"Pop 1"},"geometry":{"type":"MultiPolygon","coordinates":[[[[-103.294153324718593,19.657116334625311],[-103.285170171877397,19.657116334625311],[-103.285170171877397,19.648605906192753],[-103.294153324718593,19.648605906192753],[-103.294153324718593,19.657116334625311]]]]}},
{"type":"Feature","properties":{"fid":308.0,"DN":37,"name":"Pop 6"},"geometry":{"type":"MultiPolygon","coordinates":[[[[-103.330085936083378,19.648605906192753],[-103.303136477559789,19.648605906192753],[-103.303136477559789,19.640095021038842],[-103.312119630400986,19.640095021038842],[-103.312119630400986,19.631583679328237],[-103.321102783242182,19.631583679328237],[-103.321102783242182,19.640095021038842],[-103.330085936083378,19.640095021038842],[-103.330085936083378,19.648605906192753]]]]}},
{"type":"Feature","properties":{"fid":309.0,"DN":5,"name":"Pop 1"},"geometry":{"type":"MultiPolygon","coordinates":[[[[-103.303136477559789,19.648605906192753],[-103.294153324718593,19.648605906192753],[-103.294153324718593,19.640095021038842],[-103.303136477559789,19.640095021038842],[-103.303136477559789,19.648605906192753]]]]}},
{"type":"Feature","properties":{"fid":314.0,"DN":90,"name":"Pop 7"},"geometry":{"type":"MultiPolygon","coordinates":[[[[-103.734327813937156,19.614559626895968],[-103.72534466109596,19.614559626895968],[-103.72534466109596,19.606046916503857],[-103.734327813937156,19.606046916503857],[-103.734327813937156,19.614559626895968]]]]}},
{"type":"Feature","properties":{"fid":315.0,"DN":27,"name":"Pop 4"},"geometry":{"type":"MultiPolygon","coordinates":[[[[-103.608563674160422,19.614559626895968],[-103.59958052131924,19.614559626895968],[-103.59958052131924,19.606046916503857],[-103.608563674160422,19.606046916503857],[-103.608563674160422,19.614559626895968]]]]}},
{"type":"Feature","properties":{"fid":317.0,"DN":5,"name":"Pop 1"},"geometry":{"type":"MultiPolygon","coordinates":[[[[-104.18348545599693,20.192345419209182],[-104.18348545599693,20.166900042733907],[-104.138569691790934,20.166900042733907],[-104.138569691790934,20.183864093990532],[-104.111620233267359,20.183864093990532],[-104.111620233267359,20.158417317018944],[-104.102637080426163,20.158417317018944],[-104.102637080426163,20.149934124794953],[-104.093653927584967,20.149934124794953],[-104.093653927584967,20.141450466223557],[-104.08467077474377,20.141450466223557],[-104.08467077474377,20.132966341466457],[-104.057721316220182,20.132966341466457],[-104.057721316220182,20.124481750685373],[-104.030771857696593,20.124481750685373],[-104.030771857696593,20.132966341466457],[-104.012805552014214,20.132966341466457],[-104.012805552014214,20.149934124794953],[-103.976872940649429,20.149934124794953],[-103.976872940649429,20.132966341466457],[-103.985856093490625,20.132966341466457],[-103.985856093490625,20.090538730557608],[-103.994839246331821,20.090538730557608],[-103.994839246331821,20.073564428558594],[-103.985856093490625,20.073564428558594],[-103.985856093490625,20.065076580142367],[-103.967889787808232,20.065076580142367],[-103.967889787808232,20.056588266997853],[-103.958906634967036,20.056588266997853],[-103.958906634967036,20.048099489287221],[-103.94992348212584,20.048099489287221],[-103.94992348212584,20.039610247172721],[-103.940940329284643,20.039610247172721],[-103.940940329284643,20.022630370381311],[-103.967889787808232,20.022630370381311],[-103.967889787808232,19.988665051096277],[-103.976872940649429,19.988665051096277],[-103.976872940649429,19.971679611202958],[-103.958906634967036,19.971679611202958],[-103.958906634967036,19.980172562701682],[-103.922974023602265,19.980172562701682],[-103.922974023602265,19.971679611202958],[-103.913990870761069,19.971679611202958],[-103.913990870761069,19.963186196762823],[-103.905007717919872,19.963186196762823],[-103.905007717919872,19.971679611202958],[-103.869075106555087,19.971679611202958],[-103.869075106555087,19.946197979709343],[-103.860091953713891,19.946197979709343],[-103.860091953713891,19.937703177421639],[-103.851108800872694,19.937703177421639],[-103.851108800872694,19.929207912843825],[-103.860091953713891,19.929207912843825],[-103.860091953713891,19.920712186138843],[-103.851108800872694,19.920712186138843],[-103.851108800872694,19.903719346999427],[-103.842125648031498,19.903719346999427],[-103.842125648031498,19.886724661308048],[-103.851108800872694,19.886724661308048],[-103.851108800872694,19.8527297554919],[-103.860091953713891,19.8527297554919],[-103.860091953713891,19.818727479143686],[-103.851108800872694,19.818727479143686],[-103.851108800872694,19.793220941266469],[-103.842125648031498,19.793220941266469],[-103.842125648031498,19.776214284843576],[-103.824159342349105,19.776214284843576],[-103.824159342349105,19.767710267772166],[-103.815176189507923,19.767710267772166],[-103.815176189507923,19.793220941266469],[-103.806193036666727,19.793220941266469],[-103.806193036666727,19.80172358029025],[-103.779243578143124,19.80172358029025],[-103.779243578143124,19.81022575963722],[-103.788226730984334,19.81022575963722],[-103.788226730984334,19.8527297554919],[-103.779243578143124,19.8527297554919],[-103.779243578143124,19.844229876983622],[-103.770260425301927,19.844229876983622],[-103.770260425301927,19.784717842729645],[-103.761277272460745,19.784717842729645],[-103.761277272460745,19.776214284843576],[-103.752294119619549,19.776214284843576],[-103.752294119619549,19.759205791679285],[-103.743310966778353,19.759205791679285],[-103.743310966778353,19.750700856728916],[-103.72534466109596,19.750700856728916],[-103.72534466109596,19.759205791679285],[-103.716361508254764,19.759205791679285],[-103.716361508254764,19.750700856728916],[-103.707378355413582,19.750700856728916],[-103.707378355413582,19.73368961091186],[-103.716361508254764,19.73368961091186],[-103.716361508254764,19.708169304857126],[-103.72534466109596,19.708169304857126],[-103.72534466109596,19.674135820667964],[-103.716361508254764,19.674135820667964],[-103.716361508254764,19.657116334625311],[-103.707378355413582,19.657116334625311],[-103.707378355413582,19.640095021038842],[-103.72534466109596,19.640095021038842],[-103.72534466109596,19.62307188122568],[-103.707378355413582,19.62307188122568],[-103.707378355413582,19.606046916503857],[-103.716361508254764,19.606046916503857],[-103.716361508254764,19.597533750214271],[-103.734327813937156,19.597533750214271],[-103.734327813937156,19.5890201281921],[-103.689412049731189,19.5890201281921],[-103.689412049731189,19.580506050602352],[-103.716361508254764,19.580506050602352],[-103.716361508254764,19.571991517610034],[-103.734327813937156,19.571991517610034],[-103.734327813937156,19.580506050602352],[-103.743310966778353,19.580506050602352],[-103.743310966778353,19.5890201281921],[-103.761277272460745,19.5890201281921],[-103.761277272460745,19.597533750214271],[-103.788226730984334,19.597533750214271],[-103.788226730984334,19.614559626895968],[-103.806193036666727,19.614559626895968],[-103.806193036666727,19.62307188122568],[-103.815176189507923,19.62307188122568],[-103.815176189507923,19.631583679328237],[-103.833142495190302,19.631583679328237],[-103.833142495190302,19.640095021038842],[-103.842125648031498,19.640095021038842],[-103.842125648031498,19.657116334625311],[-103.851108800872694,19.657116334625311],[-103.851108800872694,19.665626306171902],[-103.869075106555087,19.665626306171902],[-103.869075106555087,19.68264487794896],[-103.878058259396269,19.68264487794896],[-103.878058259396269,19.691153477850417],[-103.88704141223748,19.691153477850417],[-103.88704141223748,19.708169304857126],[-103.896024565078676,19.708169304857126],[-103.896024565078676,19.72518330037332],[-103.905007717919872,19.72518330037332],[-103.905007717919872,19.742195463085093],[-103.913990870761069,19.742195463085093],[-103.913990870761069,19.759205791679285],[-103.922974023602265,19.759205791679285],[-103.922974023602265,19.767710267772166],[-103.931957176443447,19.767710267772166],[-103.931957176443447,19.784717842729645],[-103.940940329284643,19.784717842729645],[-103.940940329284643,19.793220941266469],[-103.94992348212584,19.793220941266469],[-103.94992348212584,19.80172358029025],[-103.958906634967036,19.80172358029025],[-103.958906634967036,19.818727479143686],[-103.985856093490625,19.818727479143686],[-103.985856093490625,19.827228738645982],[-103.994839246331821,19.827228738645982],[-103.994839246331821,19.835729537980477],[-104.02178870485541,19.835729537980477],[-104.02178870485541,19.844229876983622],[-104.030771857696593,19.844229876983622],[-104.030771857696593,19.8527297554919],[-104.039755010537789,19.8527297554919],[-104.039755010537789,19.861229173341869],[-104.057721316220182,19.861229173341869],[-104.057721316220182,19.878226626413277],[-104.039755010537789,19.878226626413277],[-104.039755010537789,19.895222234891172],[-104.030771857696593,19.895222234891172],[-104.030771857696593,19.903719346999427],[-104.048738163378985,19.903719346999427],[-104.048738163378985,19.920712186138843],[-104.030771857696593,19.920712186138843],[-104.030771857696593,19.929207912843825],[-104.02178870485541,19.929207912843825],[-104.02178870485541,19.937703177421639],[-104.039755010537789,19.937703177421639],[-104.039755010537789,19.946197979709343],[-104.048738163378985,19.946197979709343],[-104.048738163378985,19.954692319544016],[-104.057721316220182,19.954692319544016],[-104.057721316220182,19.963186196762823],[-104.066704469061378,19.963186196762823],[-104.066704469061378,19.988665051096277],[-104.08467077474377,19.988665051096277],[-104.08467077474377,19.997157076224113],[-104.066704469061378,19.997157076224113],[-104.066704469061378,20.005648637922576],[-104.039755010537789,20.005648637922576],[-104.039755010537789,20.014139736029151],[-104.048738163378985,20.014139736029151],[-104.048738163378985,20.048099489287221],[-104.057721316220182,20.048099489287221],[-104.057721316220182,20.031120540816634],[-104.075687621902574,20.031120540816634],[-104.075687621902574,20.005648637922576],[-104.093653927584967,20.005648637922576],[-104.093653927584967,20.014139736029151],[-104.102637080426163,20.014139736029151],[-104.102637080426163,20.039610247172721],[-104.111620233267359,20.039610247172721],[-104.111620233267359,20.048099489287221],[-104.120603386108556,20.048099489287221],[-104.120603386108556,20.065076580142367],[-104.129586538949752,20.065076580142367],[-104.129586538949752,20.082051812084362],[-104.138569691790934,20.082051812084362],[-104.138569691790934,20.090538730557608],[-104.147552844632131,20.090538730557608],[-104.147552844632131,20.107511171698441],[-104.165519150314523,20.107511171698441],[-104.165519150314523,20.115996694042096],[-104.192468608838112,20.115996694042096],[-104.192468608838112,20.132966341466457],[-104.210434914520505,20.132966341466457],[-104.210434914520505,20.141450466223557],[-104.219418067361701,20.141450466223557],[-104.219418067361701,20.149934124794953],[-104.237384373044094,20.149934124794953],[-104.237384373044094,20.158417317018944],[-104.246367525885276,20.158417317018944],[-104.246367525885276,20.166900042733907],[-104.255350678726472,20.166900042733907],[-104.255350678726472,20.175382301778281],[-104.228401220202898,20.175382301778281],[-104.228401220202898,20.183864093990532],[-104.219418067361701,20.183864093990532],[-104.219418067361701,20.175382301778281],[-104.210434914520505,20.175382301778281],[-104.210434914520505,20.192345419209182],[-104.18348545599693,20.192345419209182]],[[-103.734327813937156,19.614559626895968],[-103.734327813937156,19.606046916503857],[-103.72534466109596,19.606046916503857],[-103.72534466109596,19.614559626895968],[-103.734327813937156,19.614559626895968]],[[-103.976872940649429,20.056588266997853],[-103.976872940649429,20.048099489287221],[-103.967889787808232,20.048099489287221],[-103.967889787808232,20.056588266997853],[-103.976872940649429,20.056588266997853]],[[-103.985856093490625,20.048099489287221],[-103.985856093490625,20.039610247172721],[-103.976872940649429,20.039610247172721],[-103.976872940649429,20.048099489287221],[-103.985856093490625,20.048099489287221]],[[-103.931957176443447,19.971679611202958],[-103.931957176443447,19.963186196762823],[-103.922974023602265,19.963186196762823],[-103.922974023602265,19.971679611202958],[-103.931957176443447,19.971679611202958]]]]}},
{"type":"Feature","properties":{"fid":320.0,"DN":20,"name":"Pop 2"},"geometry":{"type":"MultiPolygon","coordinates":[[[[-103.626529979842815,19.657116334625311],[-103.617546827001618,19.657116334625311],[-103.617546827001618,19.640095021038842],[-103.59958052131924,19.640095021038842],[-103.59958052131924,19.631583679328237],[-103.590597368478043,19.631583679328237],[-103.590597368478043,19.62307188122568],[-103.56364790995444,19.62307188122568],[-103.56364790995444,19.614559626895968],[-103.590597368478043,19.614559626895968],[-103.590597368478043,19.606046916503857],[-103.59958052131924,19.606046916503857],[-103.59958052131924,19.614559626895968],[-103.617546827001618,19.614559626895968],[-103.617546827001618,19.62307188122568],[-103.626529979842815,19.62307188122568],[-103.626529979842815,19.614559626895968],[-103.635513132684011,19.614559626895968],[-103.635513132684011,19.606046916503857],[-103.644496285525207,19.606046916503857],[-103.644496285525207,19.597533750214271],[-103.653479438366404,19.597533750214271],[-103.653479438366404,19.606046916503857],[-103.662462591207586,19.606046916503857],[-103.662462591207586,19.62307188122568],[-103.653479438366404,19.62307188122568],[-103.653479438366404,19.631583679328237],[-103.644496285525207,19.631583679328237],[-103.644496285525207,19.640095021038842],[-103.635513132684011,19.640095021038842],[-103.635513132684011,19.648605906192753],[-103.626529979842815,19.648605906192753],[-103.626529979842815,19.657116334625311]]]]}},
{"type":"Feature","properties":{"fid":321.0,"DN":90,"name":"Pop 7"},"geometry":{"type":"MultiPolygon","coordinates":[[[[-103.88704141223748,20.039610247172721],[-103.869075106555087,20.039610247172721],[-103.869075106555087,20.031120540816634],[-103.851108800872694,20.031120540816634],[-103.851108800872694,20.022630370381311],[-103.842125648031498,20.022630370381311],[-103.842125648031498,20.014139736029151],[-103.833142495190302,20.014139736029151],[-103.833142495190302,19.997157076224113],[-103.824159342349105,19.997157076224113],[-103.824159342349105,19.963186196762823],[-103.815176189507923,19.963186196762823],[-103.815176189507923,19.954692319544016],[-103.788226730984334,19.954692319544016],[-103.788226730984334,19.946197979709343],[-103.779243578143124,19.946197979709343],[-103.779243578143124,19.937703177421639],[-103.770260425301927,19.937703177421639],[-103.770260425301927,19.929207912843825],[-103.761277272460745,19.929207912843825],[-103.761277272460745,19.912215997469694],[-103.743310966778353,19.912215997469694],[-103.743310966778353,19.920712186138843],[-103.734327813937156,19.920712186138843],[-103.734327813937156,19.929207912843825],[-103.716361508254764,19.929207912843825],[-103.716361508254764,19.920712186138843],[-103.707378355413582,19.920712186138843],[-103.707378355413582,19.895222234891172],[-103.698395202572385,19.895222234891172],[-103.698395202572385,19.878226626413277],[-103.689412049731189,19.878226626413277],[-103.689412049731189,19.886724661308048],[-103.680428896889978,19.886724661308048],[-103.680428896889978,19.878226626413277],[-103.662462591207586,19.878226626413277],[-103.662462591207586,19.886724661308048],[-103.653479438366404,19.886724661308048],[-103.653479438366404,19.895222234891172],[-103.644496285525207,19.895222234891172],[-103.644496285525207,19.827228738645982],[-103.635513132684011,19.827228738645982],[-103.635513132684011,19.81022575963722],[-103.626529979842815,19.81022575963722],[-103.626529979842815,19.793220941266469],[-103.617546827001618,19.793220941266469],[-103.617546827001618,19.784717842729645],[-103.608563674160422,19.784717842729645],[-103.608563674160422,19.776214284843576],[-103.59958052131924,19.776214284843576],[-103.59958052131924,19.784717842729645],[-103.590597368478043,19.784717842729645],[-103.590597368478043,19.80172358029025],[-103.581614215636833,19.80172358029025],[-103.581614215636833,19.81022575963722],[-103.554664757113244,19.81022575963722],[-103.554664757113244,19.759205791679285],[-103.56364790995444,19.759205791679285],[-103.56364790995444,19.73368961091186],[-103.581614215636833,19.73368961091186],[-103.581614215636833,19.716676531633677],[-103.590597368478043,19.716676531633677],[-103.590597368478043,19.708169304857126],[-103.581614215636833,19.708169304857126],[-103.581614215636833,19.691153477850417],[-103.572631062795637,19.691153477850417],[-103.572631062795637,19.68264487794896],[-103.554664757113244,19.68264487794896],[-103.554664757113244,19.674135820667964],[-103.545681604272062,19.674135820667964],[-103.545681604272062,19.648605906192753],[-103.536698451430865,19.648605906192753],[-103.536698451430865,19.640095021038842],[-103.527715298589669,19.640095021038842],[-103.527715298589669,19.62307188122568],[-103.518732145748473,19.62307188122568],[-103.518732145748473,19.606046916503857],[-103.509748992907276,19.606046916503857],[-103.509748992907276,19.597533750214271],[-103.500765840066094,19.597533750214271],[-103.500765840066094,19.5890201281921],[-103.518732145748473,19.5890201281921],[-103.518732145748473,19.597533750214271],[-103.527715298589669,19.597533750214271],[-103.527715298589669,19.606046916503857],[-103.536698451430865,19.606046916503857],[-103.536698451430865,19.614559626895968],[-103.554664757113244,19.614559626895968],[-103.554664757113244,19.62307188122568],[-103.590597368478043,19.62307188122568],[-103.590597368478043,19.631583679328237],[-103.59958052131924,19.631583679328237],[-103.59958052131924,19.640095021038842],[-103.617546827001618,19.640095021038842],[-103.617546827001618,19.657116334625311],[-103.626529979842815,19.657116334625311],[-103.626529979842815,19.648605906192753],[-103.635513132684011,19.648605906192753],[-103.635513132684011,19.640095021038842],[-103.644496285525207,19.640095021038842],[-103.644496285525207,19.631583679328237],[-103.653479438366404,19.631583679328237],[-103.653479438366404,19.62307188122568],[-103.662462591207586,19.62307188122568],[-103.662462591207586,19.614559626895968],[-103.680428896889978,19.614559626895968],[-103.680428896889978,19.606046916503857],[-103.671445744048782,19.606046916503857],[-103.671445744048782,19.597533750214271],[-103.680428896889978,19.597533750214271],[-103.680428896889978,19.5890201281921],[-103.671445744048782,19.5890201281921],[-103.671445744048782,19.580506050602352],[-103.689412049731189,19.580506050602352],[-103.689412049731189,19.5890201281921],[-103.734327813937156,19.5890201281921],[-103.734327813937156,19.597533750214271],[-103.716361508254764,19.597533750214271],[-103.716361508254764,19.606046916503857],[-103.707378355413582,19.606046916503857],[-103.707378355413582,19.62307188122568],[-103.72534466109596,19.62307188122568],[-103.72534466109596,19.640095021038842],[-103.707378355413582,19.640095021038842],[-103.707378355413582,19.657116334625311],[-103.716361508254764,19.657116334625311],[-103.716361508254764,19.674135820667964],[-103.72534466109596,19.674135820667964],[-103.72534466109596,19.708169304857126],[-103.716361508254764,19.708169304857126],[-103.716361508254764,19.73368961091186],[-103.707378355413582,19.73368961091186],[-103.707378355413582,19.750700856728916],[-103.716361508254764,19.750700856728916],[-103.716361508254764,19.759205791679285],[-103.72534466109596,19.759205791679285],[-103.72534466109596,19.750700856728916],[-103.743310966778353,19.750700856728916],[-103.743310966778353,19.759205791679285],[-103.752294119619549,19.759205791679285],[-103.752294119619549,19.776214284843576],[-103.761277272460745,19.776214284843576],[-103.761277272460745,19.784717842729645],[-103.770260425301927,19.784717842729645],[-103.770260425301927,19.844229876983622],[-103.779243578143124,19.844229876983622],[-103.779243578143124,19.8527297554919],[-103.788226730984334,19.8527297554919],[-103.788226730984334,19.81022575963722],[-103.779243578143124,19.81022575963722],[-103.779243578143124,19.80172358029025],[-103.806193036666727,19.80172358029025],[-103.806193036666727,19.793220941266469],[-103.815176189507923,19.793220941266469],[-103.815176189507923,19.767710267772166],[-103.824159342349105,19.767710267772166],[-103.824159342349105,19.776214284843576],[-103.842125648031498,19.776214284843576],[-103.842125648031498,19.793220941266469],[-103.851108800872694,19.793220941266469],[-103.851108800872694,19.818727479143686],[-103.860091953713891,19.818727479143686],[-103.860091953713891,19.8527297554919],[-103.851108800872694,19.8527297554919],[-103.851108800872694,19.886724661308048],[-103.842125648031498,19.886724661308048],[-103.842125648031498,19.903719346999427],[-103.851108800872694,19.903719346999427],[-103.851108800872694,19.920712186138843],[-103.860091953713891,19.920712186138843],[-103.860091953713891,19.929207912843825],[-103.851108800872694,19.929207912843825],[-103.851108800872694,19.937703177421639],[-103.860091953713891,19.937703177421639],[-103.860091953713891,19.946197979709343],[-103.869075106555087,19.946197979709343],[-103.869075106555087,19.971679611202958],[-103.905007717919872,19.971679611202958],[-103.905007717919872,19.963186196762823],[-103.913990870761069,19.963186196762823],[-103.913990870761069,19.971679611202958],[-103.922974023602265,19.971679611202958],[-103.922974023602265,19.980172562701682],[-103.958906634967036,19.980172562701682],[-103.958906634967036,19.971679611202958],[-103.976872940649429,19.971679611202958],[-103.976872940649429,19.988665051096277],[-103.967889787808232,19.988665051096277],[-103.967889787808232,20.022630370381311],[-103.940940329284643,20.022630370381311],[-103.940940329284643,20.005648637922576],[-103.922974023602265,20.005648637922576],[-103.922974023602265,19.988665051096277],[-103.913990870761069,19.988665051096277],[-103.913990870761069,20.014139736029151],[-103.905007717919872,20.014139736029151],[-103.905007717919872,20.022630370381311],[-103.896024565078676,20.022630370381311],[-103.896024565078676,20.031120540816634],[-103.88704141223748,20.031120540816634],[-103.88704141223748,20.039610247172721]],[[-103.617546827001618,19.759205791679285],[-103.617546827001618,19.750700856728916],[-103.608563674160422,19.750700856728916],[-103.608563674160422,19.759205791679285],[-103.617546827001618,19.759205791679285]],[[-103.653479438366404,19.716676531633677],[-103.653479438366404,19.708169304857126],[-103.671445744048782,19.708169304857126],[-103.671445744048782,19.699661620207937],[-103.680428896889978,19.699661620207937],[-103.680428896889978,19.691153477850417],[-103.653479438366404,19.691153477850417],[-103.653479438366404,19.68264487794896],[-103.626529979842815,19.68264487794896],[-103.626529979842815,19.674135820667964],[-103.608563674160422,19.674135820667964],[-103.608563674160422,19.708169304857126],[-103.617546827001618,19.708169304857126],[-103.617546827001618,19.716676531633677],[-103.653479438366404,19.716676531633677]]]]}},
{"type":"Feature","properties":{"fid":322.0,"DN":20,"name":"Pop 2"},"geometry":{"type":"MultiPolygon","coordinates":[[[[-103.680428896889978,19.597533750214271],[-103.671445744048782,19.597533750214271],[-103.671445744048782,19.5890201281921],[-103.680428896889978,19.5890201281921],[-103.680428896889978,19.597533750214271]]]]}},
{"type":"Feature","properties":{"fid":323.0,"DN":27,"name":"Pop 4"},"geometry":{"type":"MultiPolygon","coordinates":[[[[-103.653479438366404,19.597533750214271],[-103.644496285525207,19.597533750214271],[-103.644496285525207,19.5890201281921],[-103.653479438366404,19.5890201281921],[-103.653479438366404,19.597533750214271]]]]}},
{"type":"Feature","properties":{"fid":325.0,"DN":20,"name":"Pop 2"},"geometry":{"type":"MultiPolygon","coordinates":[[[[-103.671445744048782,19.5890201281921],[-103.662462591207586,19.5890201281921],[-103.662462591207586,19.580506050602352],[-103.671445744048782,19.580506050602352],[-103.671445744048782,19.5890201281921]]]]}},
{"type":"Feature","properties":{"fid":326.0,"DN":5,"name":"Pop 1"},"geometry":{"type":"MultiPolygon","coordinates":[[[[-103.473816381542491,19.844229876983622],[-103.464833228701295,19.844229876983622],[-103.464833228701295,19.835729537980477],[-103.455850075860099,19.835729537980477],[-103.455850075860099,19.818727479143686],[-103.446866923018916,19.818727479143686],[-103.446866923018916,19.81022575963722],[-103.455850075860099,19.81022575963722],[-103.455850075860099,19.80172358029025],[-103.446866923018916,19.80172358029025],[-103.446866923018916,19.793220941266469],[-103.455850075860099,19.793220941266469],[-103.455850075860099,19.776214284843576],[-103.446866923018916,19.776214284843576],[-103.446866923018916,19.72518330037332],[-103.455850075860099,19.72518330037332],[-103.455850075860099,19.691153477850417],[-103.464833228701295,19.691153477850417],[-103.464833228701295,19.68264487794896],[-103.473816381542491,19.68264487794896],[-103.473816381542491,19.674135820667964],[-103.464833228701295,19.674135820667964],[-103.464833228701295,19.657116334625311],[-103.455850075860099,19.657116334625311],[-103.455850075860099,19.665626306171902],[-103.446866923018916,19.665626306171902],[-103.446866923018916,19.657116334625311],[-103.43788377017772,19.657116334625311],[-103.43788377017772,19.62307188122568],[-103.446866923018916,19.62307188122568],[-103.446866923018916,19.614559626895968],[-103.464833228701295,19.614559626895968],[-103.464833228701295,19.597533750214271],[-103.482799534383688,19.597533750214271],[-103.482799534383688,19.5890201281921],[-103.491782687224884,19.5890201281921],[-103.491782687224884,19.580506050602352],[-103.509748992907276,19.580506050602352],[-103.509748992907276,19.5890201281921],[-103.500765840066094,19.5890201281921],[-103.500765840066094,19.597533750214271],[-103.509748992907276,19.597533750214271],[-103.509748992907276,19.606046916503857],[-103.518732145748473,19.606046916503857],[-103.518732145748473,19.62307188122568],[-103.527715298589669,19.62307188122568],[-103.527715298589669,19.640095021038842],[-103.536698451430865,19.640095021038842],[-103.536698451430865,19.648605906192753],[-103.545681604272062,19.648605906192753],[-103.545681604272062,19.674135820667964],[-103.554664757113244,19.674135820667964],[-103.554664757113244,19.68264487794896],[-103.572631062795637,19.68264487794896],[-103.572631062795637,19.691153477850417],[-103.581614215636833,19.691153477850417],[-103.581614215636833,19.708169304857126],[-103.590597368478043,19.708169304857126],[-103.590597368478043,19.716676531633677],[-103.581614215636833,19.716676531633677],[-103.581614215636833,19.73368961091186],[-103.56364790995444,19.73368961091186],[-103.56364790995444,19.759205791679285],[-103.554664757113244,19.759205791679285],[-103.554664757113244,19.776214284843576],[-103.527715298589669,19.776214284843576],[-103.527715298589669,19.793220941266469],[-103.509748992907276,19.793220941266469],[-103.509748992907276,19.80172358029025],[-103.500765840066094,19.80172358029025],[-103.500765840066094,19.81022575963722],[-103.491782687224884,19.81022575963722],[-103.491782687224884,19.818727479143686],[-103.473816381542491,19.818727479143686],[-103.473816381542491,19.844229876983622]]]]}},
{"type":"Feature","properties":{"fid":328.0,"DN":90,"name":"Pop 7"},"geometry":{"type":"MultiPolygon","coordinates":[[[[-103.716361508254764,19.580506050602352],[-103.689412049731189,19.580506050602352],[-103.689412049731189,19.554961086078027],[-103.707378355413582,19.554961086078027],[-103.707378355413582,19.563476529380207],[-103.716361508254764,19.563476529380207],[-103.716361508254764,19.580506050602352]]]]}},
{"type":"Feature","properties":{"fid":329.0,"DN":20,"name":"Pop 2"},"geometry":{"type":"MultiPolygon","coordinates":[[[[-103.689412049731189,19.580506050602352],[-103.671445744048782,19.580506050602352],[-103.671445744048782,19.571991517610034],[-103.680428896889978,19.571991517610034],[-103.680428896889978,19.563476529380207],[-103.689412049731189,19.563476529380207],[-103.689412049731189,19.580506050602352]]]]}},
{"type":"Feature","properties":{"fid":330.0,"DN":5,"name":"Pop 1"},"geometry":{"type":"MultiPolygon","coordinates":[[[[-103.491782687224884,19.580506050602352],[-103.482799534383688,19.580506050602352],[-103.482799534383688,19.571991517610034],[-103.491782687224884,19.571991517610034],[-103.491782687224884,19.580506050602352]]]]}},
{"type":"Feature","properties":{"fid":333.0,"DN":90,"name":"Pop 7"},"geometry":{"type":"MultiPolygon","coordinates":[[[[-103.554664757113244,19.571991517610034],[-103.536698451430865,19.571991517610034],[-103.536698451430865,19.563476529380207],[-103.554664757113244,19.563476529380207],[-103.554664757113244,19.571991517610034]]]]}},
{"type":"Feature","properties":{"fid":334.0,"DN":5,"name":"Pop 1"},"geometry":{"type":"MultiPolygon","coordinates":[[[[-103.482799534383688,19.571991517610034],[-103.473816381542491,19.571991517610034],[-103.473816381542491,19.563476529380207],[-103.482799534383688,19.563476529380207],[-103.482799534383688,19.571991517610034]]]]}},
{"type":"Feature","properties":{"fid":337.0,"DN":5,"name":"Pop 1"},"geometry":{"type":"MultiPolygon","coordinates":[[[[-103.545681604272062,19.563476529380207],[-103.536698451430865,19.563476529380207],[-103.536698451430865,19.554961086078027],[-103.545681604272062,19.554961086078027],[-103.545681604272062,19.563476529380207]]]]}},
{"type":"Feature","properties":{"fid":341.0,"DN":90,"name":"Pop 7"},"geometry":{"type":"MultiPolygon","coordinates":[[[[-103.680428896889978,19.520894765449775],[-103.671445744048782,19.520894765449775],[-103.671445744048782,19.512377049264341],[-103.680428896889978,19.512377049264341],[-103.680428896889978,19.520894765449775]]]]}},
{"type":"Feature","properties":{"fid":342.0,"DN":90,"name":"Pop 7"},"geometry":{"type":"MultiPolygon","coordinates":[[[[-103.671445744048782,19.512377049264341],[-103.662462591207586,19.512377049264341],[-103.662462591207586,19.503858878998344],[-103.671445744048782,19.503858878998344],[-103.671445744048782,19.512377049264341]]]]}}
]
}
